#cV2019 11 26 17  0  0.00000000   14308 ORBIT ITRF  FIT CNES
## 2081 234000.00000000    60.00000000 58813 0.7083333333333
+    1   L39  0  0  0  0  0  0  0  0  0  0  0  0  0  0  0  0
+          0  0  0  0  0  0  0  0  0  0  0  0  0  0  0  0  0
+          0  0  0  0  0  0  0  0  0  0  0  0  0  0  0  0  0
+          0  0  0  0  0  0  0  0  0  0  0  0  0  0  0  0  0
+          0  0  0  0  0  0  0  0  0  0  0  0  0  0  0  0  0
++
++
++         0  0  0  0  0  0  0  0  0  0  0  0  0  0  0  0  0
++         0  0  0  0  0  0  0  0  0  0  0  0  0  0  0  0  0
++         0  0  0  0  0  0  0  0  0  0  0  0  0  0  0  0  0
%c L  cc TAI ccc cccc cccc cccc cccc ccccc ccccc ccccc ccccc
%c cc cc ccc ccc cccc cccc cccc cccc ccccc ccccc ccccc ccccc
%f  1.2500000  1.025000000  0.00000000000  0.000000000000000
%f  0.0000000  0.000000000  0.00000000000  0.000000000000000
%i    0    0    0    0      0      0      0      0         0
%i    0    0    0    0      0      0      0      0         0
/* CCCCCCCCCCCCCCCCCCCCCCCCCCCCCCCCCCCCCCCCCCCCCCCCCCCCCCCCC
/* CCCCCCCCCCCCCCCCCCCCCCCCCCCCCCCCCCCCCCCCCCCCCCCCCCCCCCCCC
/* CCCCCCCCCCCCCCCCCCCCCCCCCCCCCCCCCCCCCCCCCCCCCCCCCCCCCCCCC
/* CCCCCCCCCCCCCCCCCCCCCCCCCCCCCCCCCCCCCCCCCCCCCCCCCCCCCCCCC
*  2019 11 30 11 32  0.00000000
PL39  -7635.405193   -296.535273   1085.374009 999999.999999
VL39  10154.451308 -23516.795011  64911.080234 999999.999999
*  2019 11 30 11 33  0.00000000
PL39  -7563.274375   -437.401878   1472.938260 999999.999999
VL39  13883.017397 -23432.028859  64243.296650 999999.999999
*  2019 11 30 11 34  0.00000000
PL39  -7468.893899   -577.639052   1855.891409 999999.999999
VL39  17569.130945 -23306.979784  63374.454404 999999.999999
*  2019 11 30 11 35  0.00000000
PL39  -7352.552045   -717.005037   2233.035091 999999.999999
VL39  21201.629885 -23141.632337  62307.322502 999999.999999
*  2019 11 30 11 36  0.00000000
PL39  -7214.603553   -855.258074   2603.189457 999999.999999
VL39  24769.529573 -22936.002874  61045.300416 999999.999999
*  2019 11 30 11 37  0.00000000
PL39  -7055.468448   -992.156604   2965.196911 999999.999999
VL39  28262.058330 -22690.140653  59592.405589 999999.999999
*  2019 11 30 11 38  0.00000000
PL39  -6875.630662  -1127.459461   3317.925781 999999.999999
VL39  31668.692007 -22404.129097  57953.258899 999999.999999
*  2019 11 30 11 39  0.00000000
PL39  -6675.636441  -1260.926090   3660.273891 999999.999999
VL39  34979.187779 -22078.087269  56133.068137 999999.999999
*  2019 11 30 11 40  0.00000000
PL39  -6456.092564  -1392.316758   3991.172025 999999.999999
VL39  38183.617108 -21712.171404  54137.609043 999999.999999
*  2019 11 30 11 41  0.00000000
PL39  -6217.664360  -1521.392786   4309.587272 999999.999999
VL39  41272.396920 -21306.576281  51973.203646 999999.999999
*  2019 11 30 11 42  0.00000000
PL39  -5961.073545  -1647.916782   4614.526233 999999.999999
VL39  44236.318107 -20861.536645  49646.696890 999999.999999
*  2019 11 30 11 43  0.00000000
PL39  -5687.095906  -1771.652887   4905.038088 999999.999999
VL39  47066.571807 -20377.328969  47165.432540 999999.999999
*  2019 11 30 11 44  0.00000000
PL39  -5396.558816  -1892.367031   5180.217514 999999.999999
VL39  49754.774302 -19854.273579  44537.228444 999999.999999
*  2019 11 30 11 45  0.00000000
PL39  -5090.338618  -2009.827205   5439.207454 999999.999999
VL39  52292.990735 -19292.736977  41770.350751 999999.999999
*  2019 11 30 11 46  0.00000000
PL39  -4769.357859  -2123.803740   5681.201724 999999.999999
VL39  54673.757465 -18693.134216  38873.486933 999999.999999
*  2019 11 30 11 47  0.00000000
PL39  -4434.582405  -2234.069612   5905.447462 999999.999999
VL39  56890.102873 -18055.931271  35855.717663 999999.999999
*  2019 11 30 11 48  0.00000000
PL39  -4087.018424  -2340.400750   6111.247393 999999.999999
VL39  58935.566487 -17381.647413  32726.487658 999999.999999
*  2019 11 30 11 49  0.00000000
PL39  -3727.709271  -2442.576365   6297.961929 999999.999999
VL39  60804.216400 -16670.857613  29495.575605 999999.999999
*  2019 11 30 11 50  0.00000000
PL39  -3357.732267  -2540.379292   6465.011081 999999.999999
VL39  62490.664773 -15924.194951  26173.063220 999999.999999
*  2019 11 30 11 51  0.00000000
PL39  -2978.195395  -2633.596343   6611.876178 999999.999999
VL39  63990.081189 -15142.353193  22769.303920 999999.999999
*  2019 11 30 11 52  0.00000000
PL39  -2590.233918  -2722.018683   6738.101408 999999.999999
VL39  65298.204543 -14326.089707  19294.891679 999999.999999
*  2019 11 30 11 53  0.00000000
PL39  -2195.006927  -2805.442219   6843.295166 999999.999999
VL39  66411.354302 -13476.228335  15760.629254 999999.999999
*  2019 11 30 11 54  0.00000000
PL39  -1793.693834  -2883.668008   6927.131206 999999.999999
VL39  67326.440108 -12593.661848  12177.494862 999999.999999
*  2019 11 30 11 55  0.00000000
PL39  -1387.490801  -2956.502674   6989.349592 999999.999999
VL39  68040.968641 -11679.354262   8556.607977 999999.999999
*  2019 11 30 11 56  0.00000000
PL39   -977.607149  -3023.758848   7029.757446 999999.999999
VL39  68553.047867 -10734.343385   4909.195790 999999.999999
*  2019 11 30 11 57  0.00000000
PL39   -565.261742  -3085.255612   7048.229492 999999.999999
VL39  68861.389624  -9759.743523   1246.560415 999999.999999
*  2019 11 30 11 58  0.00000000
PL39   -151.679355  -3140.818974   7044.708413 999999.999999
VL39  68965.311039  -8756.748293  -2419.953585 999999.999999
*  2019 11 30 11 59  0.00000000
PL39    261.912955  -3190.282347   7019.205003 999999.999999
VL39  68864.734766  -7726.633514  -6078.991206 999999.999999
*  2019 11 30 12  0  0.00000000
PL39    674.289482  -3233.487053   6971.798141 999999.999999
VL39  68560.188407  -6670.759815  -9719.218987 999999.999999
*  2019 11 30 12  1  0.00000000
PL39   1084.229497  -3270.282836   6902.634560 999999.999999
VL39  68052.802668  -5590.574826 -13329.357113 999999.999999
*  2019 11 30 12  2  0.00000000
PL39   1490.520857  -3300.528395   6811.928431 999999.999999
VL39  67344.308348  -4487.615229 -16898.211351 999999.999999
*  2019 11 30 12  3  0.00000000
PL39   1891.963595  -3324.091919   6699.960755 999999.999999
VL39  66437.032531  -3363.508484 -20414.705281 999999.999999
*  2019 11 30 12  4  0.00000000
PL39   2287.373482  -3340.851635   6567.078552 999999.999999
VL39  65333.893326  -2219.973787 -23867.913274 999999.999999
*  2019 11 30 12  5  0.00000000
PL39   2675.585553  -3350.696365   6413.693865 999999.999999
VL39  64038.392403  -1058.822384 -27247.093715 999999.999999
*  2019 11 30 12  6  0.00000000
PL39   3055.457581  -3353.526071   6240.282549 999999.999999
VL39  62554.605454    118.042451 -30541.721665 999999.999999
*  2019 11 30 12  7  0.00000000
PL39   3425.873487  -3349.252413   6047.382881 999999.999999
VL39  60887.171190   1308.625707 -33741.520929 999999.999999
*  2019 11 30 12  8  0.00000000
PL39   3785.746683  -3337.799292   5835.593967 999999.999999
VL39  59041.278851   2510.841396 -36836.495956 999999.999999
*  2019 11 30 12  9  0.00000000
PL39   4134.023333  -3319.103397   5605.573967 999999.999999
VL39  57022.653781   3722.513872 -39816.963406 999999.999999
*  2019 11 30 12 10  0.00000000
PL39   4469.685520  -3293.114733   5358.038127 999999.999999
VL39  54837.541071   4941.379530 -42673.582856 999999.999999
*  2019 11 30 12 11  0.00000000
PL39   4791.754313  -3259.797149   5093.756632 999999.999999
VL39  52492.687813   6165.088879 -45397.386392 999999.999999
*  2019 11 30 12 12  0.00000000
PL39   5099.292723  -3219.128839   4813.552284 999999.999999
VL39  49995.324424   7391.209260 -47979.807491 999999.999999
*  2019 11 30 12 13  0.00000000
PL39   5391.408544  -3171.102835   4518.298010 999999.999999
VL39  47353.144599   8617.228576 -50412.709834 999999.999999
*  2019 11 30 12 14  0.00000000
PL39   5667.257066  -3115.727468   4208.914191 999999.999999
VL39  44574.282647   9840.560023 -52688.415884 999999.999999
*  2019 11 30 12 15  0.00000000
PL39   5926.043644  -3053.026799   3886.365829 999999.999999
VL39  41667.287772  11058.547270 -54799.733797 999999.999999
*  2019 11 30 12 16  0.00000000
PL39   6167.026103  -2983.041026   3551.659561 999999.999999
VL39  38641.096614  12268.469533 -56739.981575 999999.999999
*  2019 11 30 12 17  0.00000000
PL39   6389.516981  -2905.826851   3205.840528 999999.999999
VL39  35505.005490  13467.546718 -58503.009086 999999.999999
*  2019 11 30 12 18  0.00000000
PL39   6592.885604  -2821.457820   2849.989126 999999.999999
VL39  32268.642286  14652.945278 -60083.218932 999999.999999
*  2019 11 30 12 19  0.00000000
PL39   6776.559987  -2730.024623   2485.217625 999999.999999
VL39  28941.937235  15821.784953 -61475.586377 999999.999999
*  2019 11 30 12 20  0.00000000
PL39   6940.028555  -2631.635355   2112.666681 999999.999999
VL39  25535.092074  16971.146270 -62675.678120 999999.999999
*  2019 11 30 12 21  0.00000000
PL39   7082.841679  -2526.415724   1733.501730 999999.999999
VL39  22058.547114  18098.078618 -63679.669364 999999.999999
*  2019 11 30 12 22  0.00000000
PL39   7204.612998  -2414.509215   1348.909296 999999.999999
VL39  18522.946683  19199.608665 -64484.358187 999999.999999
*  2019 11 30 12 23  0.00000000
PL39   7305.020546  -2296.077199    960.093214 999999.999999
VL39  14939.104150  20272.748999 -65087.177298 999999.999999
*  2019 11 30 12 24  0.00000000
PL39   7383.807651  -2171.298991    568.270797 999999.999999
VL39  11317.966420  21314.507270 -65486.203984 999999.999999
*  2019 11 30 12 25  0.00000000
PL39   7440.783636  -2040.371852    174.668937 999999.999999
VL39   7670.577172  22321.895769 -65680.167687 999999.999999
*  2019 11 30 12 26  0.00000000
PL39   7475.824279  -1903.510930   -219.479817 999999.999999
VL39   4008.039606  23291.940939 -65668.454395 999999.999999
*  2019 11 30 12 27  0.00000000
PL39   7488.872067  -1760.949149   -612.941207 999999.999999
VL39    341.479637  24221.692812 -65451.108494 999999.999999
EOF
